STARLINK-2048           
1 48092U 21027A   22275.83044616 -.00000896  00000+0 -41234-4 0  9997
2 48092  53.0548 325.7012 0001499  59.3959 300.7177 15.06394336 84077
STARLINK-2404           
1 48093U 21027B   22276.12484594  .00007754  00000+0  53875-3 0  9995
2 48093  53.0557  29.2976 0001472  67.3274 292.7870 15.06409366 83218
STARLINK-2412           
1 48094U 21027C   22276.07598552  .00000559  00000+0  56413-4 0  9998
2 48094  53.0563  39.3199 0001474  78.6248 281.4906 15.06396688 83074
STARLINK-2414           
1 48095U 21027D   22276.08335963 -.00000776  00000+0 -33223-4 0  9992
2 48095  53.0562  39.2708 0001511  72.7716 287.3438 15.06398721 83071
STARLINK-2417           
1 48096U 21027E   22275.72582133 -.00000693  00000+0 -27621-4 0  9999
2 48096  53.0549  40.8784 0001449  72.9575 287.1572 15.06401124 83411
STARLINK-2418           
1 48097U 21027F   22275.77189776 -.00000457  00000+0 -11759-4 0  9994
2 48097  53.0557  20.6869 0001350  69.9830 290.1305 15.06393867 83706
STARLINK-2421           
1 48098U 21027G   22276.01423505  .00000747  00000+0  69039-4 0  9998
2 48098  53.0554  29.5925 0001507  67.9778 292.1371 15.06406355 83250
STARLINK-2428           
1 48099U 21027H   22276.06860876  .00004215  00000+0  30159-3 0  9994
2 48099  53.0555  39.3512 0001397  69.0789 291.0349 15.06411503 83068
STARLINK-2430           
1 48100U 21027J   22276.02990659  .00000468  00000+0  50294-4 0  9995
2 48100  53.0554  19.5220 0001623  58.0641 302.0505 15.06404932 83349
STARLINK-2436           
1 48101U 21027K   22275.74791722 -.00002221  00000+0 -13026-3 0  9996
2 48101  53.0557  30.7909 0001377  64.5601 295.5531 15.06394270 83568
STARLINK-2437           
1 48102U 21027L   22275.79032604  .00000895  00000+0  79008-4 0  9995
2 48102  53.0541  20.5982 0001510  71.3655 288.7498 15.06384537 83701
STARLINK-2438           
1 48103U 21027M   22276.13217739  .00016571  00000+0  11287-2 0  9990
2 48103  53.0559  19.0863 0001589  55.3706 304.7433 15.06402148 83355
STARLINK-2439           
1 48104U 21027N   22275.74379543 -.00001545  00000+0 -84882-4 0  9999
2 48104  53.0556  25.8054 0001491  68.7518 291.3630 15.06394137 83630
STARLINK-2440           
1 48105U 21027P   22276.11560548  .00000533  00000+0  54677-4 0  9992
2 48105  53.0547 329.1432 0001639  54.6088 305.5053 15.06401508 84056
STARLINK-2442           
1 48106U 21027Q   22275.76821424 -.00001365  00000+0 -72788-4 0  9995
2 48106  53.0566  20.7109 0001529  66.1551 293.9598 15.06393436 83709
STARLINK-2443           
1 48107U 21027R   22275.98199522  .00000355  00000+0  42701-4 0  9995
2 48107  53.0556  19.7387 0001307  77.4219 282.6916 15.06404623 83334
STARLINK-2444           
1 48108U 21027S   22276.02161690 -.00000725  00000+0 -29802-4 0  9997
2 48108  53.0559  29.5592 0001490  64.5188 295.5955 15.06404193 83204
STARLINK-2445           
1 48109U 21027T   22275.77005698 -.00001808  00000+0 -10253-3 0  9996
2 48109  53.0560  40.6867 0001497  54.1320 305.9807 15.06394445 83420
STARLINK-2447           
1 48110U 21027U   22275.74517369 -.00002712  00000+0 -16329-3 0  9993
2 48110  53.0556  30.7983 0001486  71.4539 288.6611 15.06389597 83565
STARLINK-2448           
1 48111U 21027V   22275.80414545  .00001967  00000+0  15100-3 0  9998
2 48111  53.0546  30.5176 0001473  72.2434 287.8716 15.06384251 83576
STARLINK-2449           
1 48112U 21027W   22276.12898417  .00003449  00000+0  25024-3 0  9992
2 48112  53.0556  44.2379 0001546  61.1745 298.9399 15.06409953 83003
STARLINK-2450           
1 48113U 21027X   22276.06492902  .00001851  00000+0  14307-3 0  9992
2 48113  53.0563  39.3650 0001411  83.2921 276.8228 15.06409420 83062
STARLINK-2451           
1 48114U 21027Y   22276.15843046  .00008649  00000+0  59859-3 0  9995
2 48114  53.0545  33.9372 0001424  80.1219 279.9931 15.06412237 83159
STARLINK-2452           
1 48115U 21027Z   22275.72211893  .00005021  00000+0  35573-3 0  9995
2 48115  53.0550  30.9043 0001640  70.9348 289.1818 15.06400825 83559
STARLINK-2454           
1 48116U 21027AA  22276.06124487  .00000146  00000+0  28699-4 0  9991
2 48116  53.0567  39.3665 0001451  68.9416 291.1728 15.06395677 83061
STARLINK-2455           
1 48117U 21027AB  22275.70092064  .00001439  00000+0  11551-3 0  9991
2 48117  53.0551  20.9942 0001506  68.8650 291.2500 15.06401558 83693
STARLINK-2458           
1 48118U 21027AC  22275.77926159  .00004561  00000+0  32488-3 0  9991
2 48118  53.0557  20.6491 0001466  66.1630 293.9512 15.06403168 83703
STARLINK-2459           
1 48119U 21027AD  22275.77463279  .00022159  00000+0  15020-2 0  9996
2 48119  53.0550  20.6664 0001630  51.9508 308.1628 15.06396050 83694
STARLINK-2460           
1 48120U 21027AE  22276.04650776 -.00002078  00000+0 -12066-3 0  9997
2 48120  53.0567  39.4498 0001437  73.2730 286.8417 15.06393223 83064
STARLINK-2462           
1 48121U 21027AF  22276.01792939 -.00001946  00000+0 -11176-3 0  9997
2 48121  53.0585  29.5715 0001179  85.6898 274.4226 15.06404577 83204
STARLINK-2463           
1 48122U 21027AG  22275.68481294 -.00002250  00000+0 -13221-3 0  9991
2 48122  53.0562  26.0358 0001424  70.0337 290.0805 15.06393241 83622
STARLINK-2464           
1 48123U 21027AH  22275.69449201 -.00001480  00000+0 -80444-4 0  9991
2 48123  53.0554  21.0315 0001789  66.5664 293.5513 15.06397306 83696
STARLINK-2465           
1 48124U 21027AJ  22276.15800174  .00018347  00000+0  12469-2 0  9992
2 48124  53.0540  28.9465 0001605  62.0931 298.0220 15.06413511 83220
STARLINK-2466           
1 48125U 21027AK  22276.17185078 -.00000260  00000+0  14514-5 0  9996
2 48125  53.0565  39.1237 0001289  80.4971 279.6164 15.06398376 83082
STARLINK-2467           
1 48126U 21027AL  22275.79400977  .00004469  00000+0  31879-3 0  9997
2 48126  53.0565  20.5795 0001499  64.1424 295.9719 15.06392775 83715
STARLINK-2468           
1 48127U 21027AM  22275.78479959 -.00000607  00000+0 -21847-4 0  9990
2 48127  53.0544  40.6302 0001248  68.6750 291.4372 15.06405273 83425
STARLINK-2469           
1 48128U 21027AN  22276.16352927  .00000747  00000+0  69017-4 0  9993
2 48128  53.0562 329.0154 0001539  61.9949 298.1196 15.06403572 84063
STARLINK-2471           
1 48129U 21027AP  22275.77742249 -.00001122  00000+0 -56464-4 0  9992
2 48129  53.0567  40.6606 0001439  71.0528 289.0617 15.06396040 83428
STARLINK-2472           
1 48130U 21027AQ  22276.09853323  .00000267  00000+0  36799-4 0  9992
2 48130  53.0573  44.2203 0001535  82.7046 277.4117 15.06406553 83002
STARLINK-2473           
1 48131U 21027AR  22276.11837654  .00012757  00000+0  87366-3 0  9997
2 48131  53.0554  19.1109 0001656  55.4871 304.6275 15.06403361 83355
STARLINK-2474           
1 48132U 21027AS  22275.76637643 -.00000289  00000+0 -49398-6 0  9999
2 48132  53.0538  40.7048 0001469  73.6968 286.4183 15.06395852 83418
STARLINK-2475           
1 48133U 21027AT  22276.16076596  .00014880  00000+0  10156-2 0  9995
2 48133  53.0539  38.9338 0001482  78.2060 281.9095 15.06403727 83086
STARLINK-2476           
1 48134U 21027AU  22276.07967132 -.00000223  00000+0  39196-5 0  9996
2 48134  53.0571  39.3047 0001416  75.8025 284.3121 15.06397864 83076
STARLINK-2478           
1 48135U 21027AV  22276.08106625  .00000477  00000+0  50908-4 0  9993
2 48135  53.0567  44.4511 0001305  78.0149 282.0987 15.06409121 82999
STARLINK-2479           
1 48136U 21027AW  22276.17087336  .00001846  00000+0  14279-3 0  9992
2 48136  53.0554  38.8731 0001454  66.8550 293.2592 15.06400268 83083
STARLINK-2480           
1 48137U 21027AX  22275.73134731 -.00003520  00000+0 -21762-3 0  9994
2 48137  53.0556  20.8341 0001440  71.7771 288.3374 15.06389903 83691
STARLINK-2481           
1 48138U 21027AY  22275.75899968 -.00001194  00000+0 -61251-4 0  9990
2 48138  53.0550  40.7388 0001526  67.3169 292.7981 15.06395001 83425
STARLINK-2482           
1 48139U 21027AZ  22275.68343249  .00004186  00000+0  29973-3 0  9995
2 48139  53.0549  21.0828 0001443  72.2000 287.9147 15.06397846 83690
STARLINK-2483           
1 48140U 21027BA  22276.04923349  .00002409  00000+0  18054-3 0  9997
2 48140  53.0556  39.4390 0001298  76.1515 283.9618 15.06405038 83062
STARLINK-2484           
1 48141U 21027BB  22275.74056170 -.00000387  00000+0 -70872-5 0  9996
2 48141  53.0547  40.8026 0001675  61.1557 298.9600 15.06401329 83431
STARLINK-2485           
1 48142U 21027BC  22276.01148525  .00000898  00000+0  79147-4 0  9992
2 48142  53.0558  19.6074 0001438  72.6680 287.4466 15.06406136 83346
STARLINK-2486           
1 48143U 21027BD  22275.66267783  .00004096  00000+0  29376-3 0  9993
2 48143  53.0536 336.1767 0001685  58.5734 301.5419 15.06394750 84318
STARLINK-2487           
1 48144U 21027BE  22275.62076878  .00001048  00000+0  89227-4 0  9999
2 48144  53.0539  21.3664 0001270  76.7572 283.3559 15.06396037 83673
STARLINK-2488           
1 48145U 21027BF  22275.69080705  .00000380  00000+0  44416-4 0  9990
2 48145  53.0548  21.0494 0001426  65.1323 294.9814 15.06395675 83692
STARLINK-2489           
1 48146U 21027BG  22276.08703345  .00000484  00000+0  51357-4 0  9994
2 48146  53.0570  39.2754 0001331  67.6910 292.4220 15.06403934 83076
STARLINK-2490           
1 48147U 21027BH  22275.68665632 -.00001110  00000+0 -55624-4 0  9996
2 48147  53.0553  46.0681 0001495  60.4452 299.6686 15.06396119 83347
STARLINK-2491           
1 48148U 21027BJ  22275.85482554  .00003921  00000+0  28192-3 0  9995
2 48148  53.0547  40.2948 0001372  66.4426 293.6707 15.06410054 83033
STARLINK-2492           
1 48149U 21027BK  22275.80138255  .00006584  00000+0  46047-3 0  9994
2 48149  53.0563  20.5503 0001629  63.1130 297.0025 15.06403052 83706
STARLINK-2493           
1 48150U 21027BL  22276.00409707  .00000118  00000+0  26819-4 0  9995
2 48150  53.0559  19.6267 0001487  60.4156 299.6981 15.06408872 83343
STARLINK-2503           
1 48151U 21027BM  22275.80876075 -.00000298  00000+0 -11074-5 0  9998
2 48151  53.0556  20.5132 0001663  53.0415 307.0726 15.06387897 83710
